[{"OBJECT_NAME":"SCD 2","OBJECT_ID":"1998-060A","EPOCH":"2026-03-09T01:42:33.915168","MEAN_MOTION":14.45482756,"ECCENTRICITY":0.00168978,"INCLINATION":24.9965,"RA_OF_ASC_NODE":329.5569,"ARG_OF_PERICENTER":144.656,"MEAN_ANOMALY":345.4076,"EPHEMERIS_TYPE":0,"CLASSIFICATION_TYPE":"U","NORAD_CAT_ID":25504,"ELEMENT_SET_NO":999,"REV_AT_EPOCH":44582,"BSTAR":9.618387e-5,"MEAN_MOTION_DOT":5.27e-6,"MEAN_MOTION_DDOT":0},{"OBJECT_NAME":"ARIANE 40 R\/B","OBJECT_ID":"1991-050F","EPOCH":"2026-03-09T17:57:30.236832","MEAN_MOTION":14.42893607,"ECCENTRICITY":0.00043191,"INCLINATION":98.2011,"RA_OF_ASC_NODE":120.9824,"ARG_OF_PERICENTER":81.156,"MEAN_ANOMALY":279.012,"EPHEMERIS_TYPE":0,"CLASSIFICATION_TYPE":"U","NORAD_CAT_ID":21610,"ELEMENT_SET_NO":999,"REV_AT_EPOCH":81900,"BSTAR":0.0001220285,"MEAN_MOTION_DOT":3.66e-6,"MEAN_MOTION_DDOT":0}]
